0 IRIDIUM 33 DEB
1 34486U 97051GB  13283.09391663  .00002097  00000-0  61826-3 0  2651
2 34486 086.4147 127.3733 0021490 013.7771 111.2628 14.43078998243907
0 IRIDIUM 33 DEB
1 34486U 97051GB  13286.00701097  .00002488  00000-0  73435-3 0  2676
2 34486 086.4146 126.1443 0021336 004.2444 124.9621 14.43088568244327
0 IRIDIUM 33 DEB
1 34486U 97051GB  13287.30980126  .00002920  00000-0  86275-3 0  2680
2 34486 086.4142 125.5946 0021175 359.8895 053.1698 14.43093100244510
0 IRIDIUM 33 DEB
1 34486U 97051GB  13288.78032236  .00003220  00000-0  95201-3 0  2697
2 34486 086.4138 124.9743 0020998 355.0825 132.6947 14.43105538244728
0 IRIDIUM 33 DEB
1 34486U 97051GB  13289.95858566  .00003397  00000-0  10043-2 0  2706
2 34486 086.4136 124.4773 0020863 351.1763 134.0011 14.43110513244898
0 IRIDIUM 33 DEB
1 34486U 97051GB  13291.33180594  .00003195  00000-0  94425-3 0  2714
2 34486 086.4136 123.8980 0020679 346.4429 068.3624 14.43118598245095
0 IRIDIUM 33 DEB
1 34486U 97051GB  13292.51113340  .00003246  00000-0  95939-3 0  2729
2 34486 086.4137 123.4003 0020558 342.4360 075.3532 14.43124739245263
0 IRIDIUM 33 DEB
1 34486U 97051GB  13293.77278777  .00003585  00000-0  10599-2 0  2739
2 34486 086.4140 122.8680 0020430 338.0920 150.1500 14.43131157245442
0 IRIDIUM 33 DEB
1 34486U 97051GB  13295.01879753  .00003948  00000-0  11677-2 0  2741
2 34486 086.4141 122.3421 0020297 333.7771 143.7207 14.43137620245621
0 IRIDIUM 33 DEB
1 34486U 97051GB  13296.06056919  .00004180  00000-0  12366-2 0  2754
2 34486 086.4143 121.9027 0020197 330.1492 156.2280 14.43144349245772
